#dP2021  7  6  6  0  0.00000000      96 __u+U ITR00 EXT  IAC
## 2165 194400.00000000   900.00000000 59401 0.2500000000000
+  117   C06C07C08C09C10C11C12C13C14C16C19C20C21C22C23C24C25
+        C26C27C28C29C30C32C33C34C35C36C37C38C39C40C41C42C43
+        C44C45C46E01E02E03E04E05E07E08E09E11E12E13E14E15E18
+        E19E21E24E25E26E27E30E31E33E36G01G02G03G04G05G06G07
+        G08G09G10G11G12G13G14G15G16G17G18G19G20G21G22G23G24
+        G25G26G27G28G29G30G31G32J01J02J03R01R02R03R04R05R07
+        R08R09R11R12R13R14R15R16R17R18R19R20R21R22R24  0  0
++        11  9 10 10 10  9  8  9  8 10  9  8  9  9  8  8  8
++         8  9  7  8 10  7  8  8 10  9  9  9 11 10  8  9 10
++         8  8  9  7  9  7  7  9  8  8  8  8  8  8  8  8  8
++         8  9  6  8  7  8  9  6  8  7  7  8  7  8  9  7  8
++         6  7  8  8  8  8  9  8  7  7  7  7  7  7  7  7  8
++         7  7  7  7  9  8  7  8 10 10  9  8  9  8  9  9  8
++         8 10  8  8  9  9 10  8  7  8  8  9  9  8  9  0  0
%c M  cc GPS ccc cccc cccc cccc cccc ccccc ccccc ccccc ccccc
%c cc cc ccc ccc cccc cccc cccc cccc ccccc ccccc ccccc ccccc
%f  0.0000000  0.000000000  0.00000000000  0.000000000000000
%f  0.0000000  0.000000000  0.00000000000  0.000000000000000
%i    0    0    0    0      0      0      0      0         0
%i    0    0    0    0      0      0      0      0         0
/* IAC                                ULTRA-RAPID PREDICTION
/* S/V CLOCKS ARE ALIGNED TO GNSS TIME                      
/* G:C1WC2W R:C1PC2P E:C1XC5X C:C2IC6I J:C1CC2S             
/* PCV:IGS14_2163 OL/AL:FES2004  NONE     YN ORB:CoN CLK:CoN
*  2021 07 06 10 45  0.00000000
PC06 -12677.684176  38087.757508  14192.498596    590.082599
PC07 -11490.316296  23868.727049 -32533.504622    151.308042
PC08 -23706.328677  27025.643171  21821.364881   -901.060933
PC09  -4117.761107  42200.833382   -485.890738    394.816738
PC10   2818.090668  28997.424500 -30103.102309    -21.747125
PC11  15726.751050  -7659.836408  21807.595298    441.494214
PC12  12317.328846  12977.052649  21435.361446    820.505890
PC13 -11891.171938  27955.220249  29223.242774    326.427017
PC14  21755.247670   1519.260551 -17350.568104    832.311383
PC16 -10447.442635  39207.935343  12009.368276   -934.925789
PC19 -15650.981522   7139.840539  22004.311919    898.830164
PC20 -24027.643737  -8512.695148  11413.731130   -853.269005
PC21  18368.870736  19924.359420   6617.648816   -935.148614
PC22   2033.879051  19167.323022  20171.086871   -948.488087
PC23   8819.283102 -18303.241465  19139.748279   -960.586455
PC24  24884.843570   -228.911902 -12646.423027   -925.895835
PC25  23440.887147 -14209.021134   5281.818832   -890.090131
PC26  12416.623090  11793.108423 -22043.658616    882.676903
PC27  -7873.561057 -21507.519967 -15956.300591    559.888007
PC28   4536.483771 -27534.974783    496.162432    -53.876625
PC29 -13584.509381  17869.843763 -16590.627165    415.769776
PC30 -15644.864670  -2967.302203 -22925.121718    473.138076
PC32 -18550.580756 -19786.154902  -6585.839879   -924.143334
PC33  15649.931601  -7196.484885 -21943.560824   -940.667448
PC34  15783.012243   2148.381305  22899.639058   -634.328040
PC35  -3830.748489  27645.845649   -875.164372   -200.074059
PC36 -23956.674107  13443.520226  -4892.112689   -730.965020
PC37 -11171.678814 -12624.793484  22259.631122   -867.327448
PC38 -21878.917030  28776.549507  21583.027194    159.909796
PC39  -7051.433790  40150.838179  11087.683765     32.229279
PC40  -1815.749814  24655.230796 -34098.920661    177.881103
PC41  -1807.279283 -19066.474452 -20246.928214   -955.796376
PC42  24090.501985   9124.555627 -10659.868240   -917.247165
PC43  13925.023014 -17300.338152  16874.111176   -808.797106
PC44   8536.257058  21438.047288  15702.487991    275.497775
PC45  -8672.134168  18207.015196 -19271.907466    486.161600
PC46 -25231.100014   1110.354431  11849.961689    191.670417
PE01 -26315.677938  -9274.631823   9889.421618  -1144.288373
PE02  26393.960082   9193.306905  -9759.269038    231.011833
PE03  19226.528311  17098.702017 -14615.314529   -449.674984
PE04 -17176.067386   3144.385252  23911.986351   -807.497861
PE05  10016.594212  27640.616585   3423.360542   -267.360841
PE07   4900.408467 -21958.147967 -19231.601142   -558.375858
PE08  16877.959319  -3556.642490 -24047.449854   5974.706448
PE09  -4586.459324  22028.864222  19230.831083   5609.710992
PE11 -15287.310774  25186.536608   2914.362741   5757.308859
PE12 -21537.205182  12823.001842 -15764.785235   5124.794473
PE13  15456.179053 -25117.277564  -2509.510733    418.664271
PE14  -2459.337856 -28029.573147   3387.992027  -1490.743634
PE15  21445.243833 -12944.559619  15767.043062    804.962680
PE18  -8344.851330  23297.174801 -14747.960283  -1633.516816
PE19 -18633.993999 -19067.989895  12870.838270    319.992514
PE21 -10131.873956 -16255.504561  22571.111851   -674.685827
PE24 -13596.387368  13857.176837 -22347.803289   -993.071121
PE25   9898.415617  16281.371158 -22642.484079   -539.137621
PE26   -368.481475 -22084.834004 -19711.069001   1611.132717
PE27  12613.657103 -14191.036442  22715.820459    -69.673911
PE30  28181.189309  -3008.117898   8548.985370   2806.267416
PE31 -27780.247813   3787.130476  -9487.629226   -482.957270
PE33 -14797.165905  -6814.881897 -24716.401060   -468.090991
PE36   -394.529343  22478.827108  19253.666918   -230.661517
PG01  11799.171786 -21131.124169 -10798.296109    636.644846
PG02 -20737.893125  12023.619141 -10849.164068   -617.629919
PG03   5438.288439 -14079.612337 -21940.574558   -212.408203
PG04   2064.167043 -24365.894569 -10285.188128   -201.752704
PG05 -18440.244141   8036.011970  17278.455654    -47.081639
PG06 -18672.445214    638.998075 -18847.372207     36.226682
PG07  -2059.600709 -17687.449424  19915.127662    195.840647
PG08   8353.205531 -17237.336522  18252.630282    -27.766184
PG09  -7123.216566 -25573.481024    233.887563   -354.357073
PG10  22629.070161  11901.288837   7811.906385   -156.533993
PG11 -22369.978044   8925.053194 -11212.463528      8.372570
PG12  -7228.034308  13333.600626 -22048.457595    -64.806311
PG13 -13382.378731   9203.608765  20853.402321    154.094198
PG14 -22152.400886 -12747.197882   7303.431309     53.863949
PG15  -6784.035729  18470.363892  17309.894944   -137.458846
PG16  22833.698391  -1191.955727  13647.742269   -352.666981
PG17 -12625.011223 -18917.314151 -13286.034659    469.513227
PG18   4009.022718  15881.346517  20878.966611    342.782311
PG19 -14850.011040 -10443.311031 -19718.878732     22.696698
PG20 -23779.084055   4640.133107  10469.062688    520.461094
PG21  16608.892774 -20254.562275  -1424.653671    129.557010
PG22  14168.751482 -11667.210292 -18947.928639   -570.533202
PG23  13674.793686  15447.545875  16737.007031     88.263684
PG24 -13948.018392  21730.013205  -5493.572530    163.335210
PG25   6069.329428  16434.567402 -20300.737692    168.616821
PG26  26234.315444   3599.772342   3418.231324    107.218514
PG27  13628.041792  -6163.452390  21742.937094   -158.561316
PG28 -24101.841127 -10809.269897   2021.373336    542.596327
PG29   4051.607708  26205.113551   -857.459870   -375.747602
PG30 -13504.951820  -8767.201210  21214.541381   -447.544776
PG31  20273.079263  -2029.994524 -17365.003244   -127.094148
PG32  15126.306908  15731.575945 -15140.820581     15.467212
PJ01 -26010.311825  21476.766449  30335.013184   -409.828864
PJ02 -33440.876655  15568.282682 -15914.765587     -0.619850
PJ03 -20594.153331  32832.637035 -12172.746951    -10.200156
PR01 -14612.988520 -20020.735768  -6059.306476     81.930707
PR02 -18307.031161 -10694.623674  14182.547427    485.008880
PR03 -10388.299572   4673.173577  22864.484346     38.968135
PR04   3362.155067  17029.873585  18722.383674     94.538274
PR05  15145.002765  20120.276506   4140.173058     74.838195
PR07   9968.535033  -5140.434010 -22872.655477    -42.123881
PR08  -3410.931111 -17108.173724 -18544.616863    -59.829999
PR09  23834.419673   -781.206865  -8929.692809      1.508969
PR11   8358.951443 -11986.916281  20916.110961    -18.917573
PR12 -11255.940765  -8063.633780  21449.665337    243.034852
PR13 -23594.145757    518.080910   9677.180087    -57.313624
PR14 -22298.071838   8974.462101  -8553.791220     66.148876
PR15  -7961.243732  11949.762645 -21060.095367    102.845264
PR16  12674.847370   7445.753250 -20897.649216    -17.467988
PR17 -12642.467353  16396.825971 -14869.619486    438.713379
PR18  -7747.683775  24300.882496   1219.525028     82.475202
PR19    250.880350  19823.173029  16040.111466   -150.469327
PR20  10319.935375   1870.160794  23250.038738    -52.033512
PR21  12514.356112 -17390.770518  13857.964961   -221.824898
PR22   7372.422423 -24261.101479  -2303.907083   -121.273428
PR24 -11038.722221  -1063.264717 -22960.952589     49.349454
EOF
